start=new Date('2021-10-07T00:00:00.000Z').valueOf();
sats=[{"APOAPSIS":"548.321","CENTER_NAME":"EARTH","GP_ID":"186423041","COUNTRY_CODE":"US","MEAN_MOTION_DDOT":"0.0000000000000","EPHEMERIS_TYPE":"0","OBJECT_NAME":"STARLINK-1569","CLASSIFICATION_TYPE":"U","BSTAR":"0.00014114000000","EPOCH":"2021-10-06T20:48:54.840096","RA_OF_ASC_NODE":"175.8497","SEMIMAJOR_AXIS":"6925.348","INCLINATION":"53.0542","ELEMENT_SET_NO":"999","PERIOD":"95.592","OBJECT_TYPE":"PAYLOAD","SITE":"AFETR","MEAN_MOTION":"15.06400136","TLE_LINE2":"2 46039  53.0542 175.8497 0001600  78.1778 281.9390 15.06400136 65491","PERIAPSIS":"546.105","DECAY_DATE":null,"TIME_SYSTEM":"UTC","ECCENTRICITY":"0.00016000","RCS_SIZE":"LARGE","LAUNCH_DATE":"2020-08-07","TLE_LINE1":"1 46039U 20055N   21279.86730139  .00001821  00000-0  14114-3 0  9998","ARG_OF_PERICENTER":"78.1778","MEAN_MOTION_DOT":"0.00001821","NORAD_CAT_ID":"46039","REF_FRAME":"TEME","OBJECT_ID":"2020-055N","REV_AT_EPOCH":"6549","MEAN_ELEMENT_THEORY":"SGP4","MEAN_ANOMALY":"281.9390","FILE":"3148521"},{"LAUNCH_DATE":"2020-08-07","TLE_LINE1":"1 46040U 20055P   21279.10063953  .00001823  00000-0  14129-3 0  9998","RCS_SIZE":"LARGE","REF_FRAME":"TEME","NORAD_CAT_ID":"46040","OBJECT_ID":"2020-055P","MEAN_MOTION_DOT":"0.00001823","ARG_OF_PERICENTER":"70.1042","FILE":"3147912","REV_AT_EPOCH":"6534","MEAN_ANOMALY":"290.0126","MEAN_ELEMENT_THEORY":"SGP4","MEAN_MOTION":"15.06381925","TLE_LINE2":"2 46040  53.0548 179.2901 0001666  70.1042 290.0126 15.06381925 65341","PERIOD":"95.593","SITE":"AFETR","OBJECT_TYPE":"PAYLOAD","PERIAPSIS":"546.115","DECAY_DATE":null,"TIME_SYSTEM":"UTC","ECCENTRICITY":"0.00016660","CLASSIFICATION_TYPE":"U","BSTAR":"0.00014129000000","INCLINATION":"53.0548","SEMIMAJOR_AXIS":"6925.404","EPOCH":"2021-10-06T02:24:55.255392","RA_OF_ASC_NODE":"179.2901","ELEMENT_SET_NO":"999","APOAPSIS":"548.423","CENTER_NAME":"EARTH","GP_ID":"186362242","COUNTRY_CODE":"US","MEAN_MOTION_DDOT":"0.0000000000000","OBJECT_NAME":"STARLINK-1576","EPHEMERIS_TYPE":"0"},{"PERIAPSIS":"546.010","TLE_LINE2":"2 46041  53.0549 177.7880 0001775  67.6647 292.4530 15.06391616 65405","MEAN_MOTION":"15.06391616","PERIOD":"95.593","SITE":"AFETR","OBJECT_TYPE":"PAYLOAD","ECCENTRICITY":"0.00017750","TIME_SYSTEM":"UTC","DECAY_DATE":null,"LAUNCH_DATE":"2020-08-07","TLE_LINE1":"1 46041U 20055Q   21279.43510719  .00001821  00000-0  14113-3 0  9993","RCS_SIZE":"LARGE","FILE":"3148521","REV_AT_EPOCH":"6540","MEAN_ANOMALY":"292.4530","MEAN_ELEMENT_THEORY":"SGP4","NORAD_CAT_ID":"46041","REF_FRAME":"TEME","OBJECT_ID":"2020-055Q","ARG_OF_PERICENTER":"67.6647","MEAN_MOTION_DOT":"0.00001821","APOAPSIS":"548.469","GP_ID":"186423544","CENTER_NAME":"EARTH","MEAN_MOTION_DDOT":"0.0000000000000","EPHEMERIS_TYPE":"0","OBJECT_NAME":"STARLINK-1580","COUNTRY_CODE":"US","CLASSIFICATION_TYPE":"U","BSTAR":"0.00014113000000","ELEMENT_SET_NO":"999","INCLINATION":"53.0549","SEMIMAJOR_AXIS":"6925.374","RA_OF_ASC_NODE":"177.7880","EPOCH":"2021-10-06T10:26:33.261216"},{"RA_OF_ASC_NODE":"175.7798","EPOCH":"2021-10-06T21:10:08.432256","INCLINATION":"53.0548","SEMIMAJOR_AXIS":"6925.359","ELEMENT_SET_NO":"999","BSTAR":"0.00005967600000","CLASSIFICATION_TYPE":"U","COUNTRY_CODE":"US","EPHEMERIS_TYPE":"0","OBJECT_NAME":"STARLINK-1581","MEAN_MOTION_DDOT":"0.0000000000000","GP_ID":"186422293","CENTER_NAME":"EARTH","APOAPSIS":"548.512","ARG_OF_PERICENTER":"72.3065","MEAN_MOTION_DOT":"0.00000607","OBJECT_ID":"2020-055R","NORAD_CAT_ID":"46042","REF_FRAME":"TEME","MEAN_ELEMENT_THEORY":"SGP4","MEAN_ANOMALY":"287.8127","REV_AT_EPOCH":"6546","FILE":"3148521","RCS_SIZE":"LARGE","TLE_LINE1":"1 46042U 20055R   21279.88204204  .00000607  00000-0  59676-4 0  9997","LAUNCH_DATE":"2020-08-07","DECAY_DATE":null,"ECCENTRICITY":"0.00018600","TIME_SYSTEM":"UTC","OBJECT_TYPE":"PAYLOAD","SITE":"AFETR","PERIOD":"95.592","MEAN_MOTION":"15.06396547","TLE_LINE2":"2 46042  53.0548 175.7798 0001860  72.3065 287.8127 15.06396547 65467","PERIAPSIS":"545.936"},{"ELEMENT_SET_NO":"999","SEMIMAJOR_AXIS":"6925.354","INCLINATION":"53.0540","EPOCH":"2021-10-06T20:59:31.336800","RA_OF_ASC_NODE":"175.8123","BSTAR":"0.00003493500000","CLASSIFICATION_TYPE":"U","MEAN_MOTION_DDOT":"0.0000000000000","OBJECT_NAME":"STARLINK-1582","EPHEMERIS_TYPE":"0","COUNTRY_CODE":"US","APOAPSIS":"548.426","CENTER_NAME":"EARTH","GP_ID":"186422543","FILE":"3148521","REV_AT_EPOCH":"6549","MEAN_ANOMALY":"292.7953","MEAN_ELEMENT_THEORY":"SGP4","NORAD_CAT_ID":"46043","REF_FRAME":"TEME","OBJECT_ID":"2020-055S","MEAN_MOTION_DOT":"0.00000239","ARG_OF_PERICENTER":"67.3220","LAUNCH_DATE":"2020-08-07","TLE_LINE1":"1 46043U 20055S   21279.87466825  .00000239  00000-0  34935-4 0  9998","RCS_SIZE":"LARGE","TIME_SYSTEM":"UTC","ECCENTRICITY":"0.00017430","DECAY_DATE":null,"PERIAPSIS":"546.012","TLE_LINE2":"2 46043  53.0540 175.8123 0001743  67.3220 292.7953 15.06398145 65491","MEAN_MOTION":"15.06398145","PERIOD":"95.592","SITE":"AFETR","OBJECT_TYPE":"PAYLOAD"},{"LAUNCH_DATE":"2020-08-07","TLE_LINE1":"1 46044U 20055T   21279.88942216  .00001748  00000-0  13628-3 0  9994","RCS_SIZE":"LARGE","NORAD_CAT_ID":"46044","REF_FRAME":"TEME","OBJECT_ID":"2020-055T","MEAN_MOTION_DOT":"0.00001748","ARG_OF_PERICENTER":"71.2569","FILE":"3148521","REV_AT_EPOCH":"6550","MEAN_ANOMALY":"288.8599","MEAN_ELEMENT_THEORY":"SGP4","MEAN_MOTION":"15.06388714","TLE_LINE2":"2 46044  53.0539 175.7394 0001657  71.2569 288.8599 15.06388714 65508","PERIOD":"95.593","OBJECT_TYPE":"PAYLOAD","SITE":"AFETR","PERIAPSIS":"546.101","DECAY_DATE":null,"ECCENTRICITY":"0.00016570","TIME_SYSTEM":"UTC","CLASSIFICATION_TYPE":"U","BSTAR":"0.00013628000000","SEMIMAJOR_AXIS":"6925.383","INCLINATION":"53.0539","EPOCH":"2021-10-06T21:20:46.074624","RA_OF_ASC_NODE":"175.7394","ELEMENT_SET_NO":"999","APOAPSIS":"548.396","GP_ID":"186423793","CENTER_NAME":"EARTH","COUNTRY_CODE":"US","MEAN_MOTION_DDOT":"0.0000000000000","EPHEMERIS_TYPE":"0","OBJECT_NAME":"STARLINK-1584"},{"APOAPSIS":"548.366","GP_ID":"186424044","CENTER_NAME":"EARTH","COUNTRY_CODE":"US","MEAN_MOTION_DDOT":"0.0000000000000","EPHEMERIS_TYPE":"0","OBJECT_NAME":"STARLINK-1591","CLASSIFICATION_TYPE":"U","BSTAR":"0.00006720800000","RA_OF_ASC_NODE":"175.6975","EPOCH":"2021-10-06T21:36:41.539392","INCLINATION":"53.0534","SEMIMAJOR_AXIS":"6925.379","ELEMENT_SET_NO":"999","PERIOD":"95.593","SITE":"AFETR","OBJECT_TYPE":"PAYLOAD","MEAN_MOTION":"15.06390181","TLE_LINE2":"2 46045  53.0534 175.6975 0001621  71.4069 288.7095 15.06390181 65484","PERIAPSIS":"546.121","DECAY_DATE":null,"ECCENTRICITY":"0.00016210","TIME_SYSTEM":"UTC","RCS_SIZE":"LARGE","LAUNCH_DATE":"2020-08-07","TLE_LINE1":"1 46045U 20055U   21279.90048078  .00000719  00000-0  67208-4 0  9992","MEAN_MOTION_DOT":"0.00000719","ARG_OF_PERICENTER":"71.4069","NORAD_CAT_ID":"46045","REF_FRAME":"TEME","OBJECT_ID":"2020-055U","REV_AT_EPOCH":"6548","MEAN_ANOMALY":"288.7095","MEAN_ELEMENT_THEORY":"SGP4","FILE":"3148521"},{"PERIAPSIS":"438.723","TLE_LINE2":"2 46046  53.0557 160.6477 0001409  76.4230 283.6931 15.42178290 65680","MEAN_MOTION":"15.42178290","OBJECT_TYPE":"PAYLOAD","SITE":"AFETR","PERIOD":"93.374","ECCENTRICITY":"0.00014090","TIME_SYSTEM":"UTC","DECAY_DATE":null,"TLE_LINE1":"1 46046U 20055V   21279.89356005  .00011766  00000-0  27923-3 0  9996","LAUNCH_DATE":"2020-08-07","RCS_SIZE":"LARGE","FILE":"3148521","MEAN_ELEMENT_THEORY":"SGP4","MEAN_ANOMALY":"283.6931","REV_AT_EPOCH":"6568","OBJECT_ID":"2020-055V","NORAD_CAT_ID":"46046","REF_FRAME":"TEME","ARG_OF_PERICENTER":"76.4230","MEAN_MOTION_DOT":"0.00011766","GP_ID":"186422793","CENTER_NAME":"EARTH","APOAPSIS":"440.644","EPHEMERIS_TYPE":"0","OBJECT_NAME":"STARLINK-1514","MEAN_MOTION_DDOT":"0.0000000000000","COUNTRY_CODE":"US","BSTAR":"0.00027923000000","CLASSIFICATION_TYPE":"U","ELEMENT_SET_NO":"999","INCLINATION":"53.0557","SEMIMAJOR_AXIS":"6817.819","EPOCH":"2021-10-06T21:26:43.588320","RA_OF_ASC_NODE":"160.6477"},{"GP_ID":"186423042","CENTER_NAME":"EARTH","APOAPSIS":"548.414","OBJECT_NAME":"STARLINK-1524","EPHEMERIS_TYPE":"0","MEAN_MOTION_DDOT":"0.0000000000000","COUNTRY_CODE":"US","CLASSIFICATION_TYPE":"U","BSTAR":"0.00007305300000","ELEMENT_SET_NO":"999","EPOCH":"2021-10-06T20:29:00.815424","RA_OF_ASC_NODE":"165.9098","INCLINATION":"53.0546","SEMIMAJOR_AXIS":"6925.379","PERIAPSIS":"546.074","OBJECT_TYPE":"PAYLOAD","SITE":"AFETR","PERIOD":"95.593","MEAN_MOTION":"15.06390114","TLE_LINE2":"2 46047  53.0546 165.9098 0001689  70.2485 289.8686 15.06390114 65631","TIME_SYSTEM":"UTC","ECCENTRICITY":"0.00016890","DECAY_DATE":null,"RCS_SIZE":"LARGE","TLE_LINE1":"1 46047U 20055W   21279.85348166  .00000806  00000-0  73053-4 0  9991","LAUNCH_DATE":"2020-08-07","MEAN_ELEMENT_THEORY":"SGP4","MEAN_ANOMALY":"289.8686","REV_AT_EPOCH":"6563","FILE":"3148521","ARG_OF_PERICENTER":"70.2485","MEAN_MOTION_DOT":"0.00000806","OBJECT_ID":"2020-055W","NORAD_CAT_ID":"46047","REF_FRAME":"TEME"},{"CLASSIFICATION_TYPE":"U","BSTAR":"0.00002617300000","ELEMENT_SET_NO":"999","SEMIMAJOR_AXIS":"6925.365","INCLINATION":"53.0526","RA_OF_ASC_NODE":"165.9239","EPOCH":"2021-10-06T20:23:42.085824","APOAPSIS":"548.347","GP_ID":"186423294","CENTER_NAME":"EARTH","MEAN_MOTION_DDOT":"0.0000000000000","OBJECT_NAME":"STARLINK-1527","EPHEMERIS_TYPE":"0","COUNTRY_CODE":"US","LAUNCH_DATE":"2020-08-07","TLE_LINE1":"1 46048U 20055X   21279.84979266  .00000108  00000-0  26173-4 0  9998","RCS_SIZE":"LARGE","FILE":"3148521","REV_AT_EPOCH":"6561","MEAN_ELEMENT_THEORY":"SGP4","MEAN_ANOMALY":"288.3936","NORAD_CAT_ID":"46048","REF_FRAME":"TEME","OBJECT_ID":"2020-055X","MEAN_MOTION_DOT":"0.00000108","ARG_OF_PERICENTER":"71.7228","PERIAPSIS":"546.113","TLE_LINE2":"2 46048  53.0526 165.9239 0001613  71.7228 288.3936 15.06394644 65617","MEAN_MOTION":"15.06394644","PERIOD":"95.592","SITE":"AFETR","OBJECT_TYPE":"PAYLOAD","ECCENTRICITY":"0.00016130","TIME_SYSTEM":"UTC","DECAY_DATE":null}];
